NORAD_CAT_ID,OBJECT_NAME,OBJECT_TYPE,EPOCH,MEAN_MOTION,ECCENTRICITY,INCLINATION,RA_OF_ASC_NODE,ARG_OF_PERICENTER,MEAN_ANOMALY,BSTAR,MEAN_MOTION_DOT,MEAN_MOTION_DDOT,TLE_LINE0,TLE_LINE1,TLE_LINE2,SEMIMAJOR_AXIS,PERIOD,APOGEE,PERIGEE,DECAYED
53711.0,STARLINK-4627,PAYLOAD,2023-11-12 03:13:20,15.08847018,0.0001139,53.2156,98.2373,85.4049,274.7073,0.00025025,3.698e-05,0.0,0 STARLINK-4627,1 53711U 22107M   23316.13426356  .00003698  00000-0  25025-3 0  9997,2 53711  53.2156  98.2373 0001139  85.4049 274.7073 15.08847018 65932,6917.859,95.437,540.512,538.936,0.0
53711.0,STARLINK-4627,PAYLOAD,2023-11-12 12:45:39,15.0884283,0.00013,53.2157,96.4524,92.2985,267.8156,0.00013798,1.909e-05,0.0,0 STARLINK-4627,1 53711U 22107M   23316.53170525  .00001909  00000-0  13798-3 0  9992,2 53711  53.2157  96.4524 0001300  92.2985 267.8156 15.08842830 66434,6917.872,95.437,540.636,538.837,0.0
53711.0,STARLINK-4627,PAYLOAD,2023-11-12 19:07:11,15.08848641,0.0001365,53.2167,95.263,97.4318,262.683,0.0001873,2.695e-05,0.0,0 STARLINK-4627,1 53711U 22107M   23316.79666353  .00002695  00000-0  18730-3 0  9993,2 53711  53.2167  95.2630 0001365  97.4318 262.6830 15.08848641 66470,6917.854,95.437,540.663,538.775,0.0
53711.0,STARLINK-4627,PAYLOAD,2023-11-13 09:25:39,15.08849076,0.0001287,53.2179,92.5847,105.9427,254.1707,8.8994e-07,-2.74e-06,0.0,0 STARLINK-4627,1 53711U 22107M   23317.39282099 -.00000274  00000-0  88994-6 0  9995,2 53711  53.2179  92.5847 0001287 105.9427 254.1707 15.08849076 66126,6917.853,95.437,540.608,538.827,0.0
53711.0,STARLINK-4627,PAYLOAD,2023-11-13 12:36:25,15.08849625,0.0001344,53.2174,91.9906,103.8184,256.2957,7.7121e-05,9.4e-06,0.0,0 STARLINK-4627,1 53711U 22107M   23317.52530010  .00000940  00000-0  77121-4 0  9996,2 53711  53.2174  91.9906 0001344 103.8184 256.2957 15.08849625 66581,6917.851,95.437,540.646,538.786,0.0
53711.0,STARLINK-4627,PAYLOAD,2023-11-14 09:16:27,15.08839872,0.0001209,53.218,88.1298,81.2125,278.9004,8.926e-05,1.133e-05,0.0,0 STARLINK-4627,1 53711U 22107M   23318.38642529  .00001133  00000-0  89260-4 0  9992,2 53711  53.2180  88.1298 0001209  81.2125 278.9004 15.08839872 66277,6917.881,95.438,540.582,538.909,0.0
53711.0,STARLINK-4627,PAYLOAD,2023-11-14 12:27:13,15.08836851,0.0001378,53.2165,87.5306,109.3533,250.7608,7.0749e-06,-1.75e-06,0.0,0 STARLINK-4627,1 53711U 22107M   23318.51890586 -.00000175  00000-0  70749-5 0  9994,2 53711  53.2165  87.5306 0001378 109.3533 250.7608 15.08836851 66738,6917.89,95.438,540.708,538.802,0.0
53711.0,STARLINK-4627,PAYLOAD,2023-11-14 15:37:59,15.08836538,0.0001257,53.2163,86.938,96.2151,263.8984,1.3176e-05,-7.8e-07,0.0,0 STARLINK-4627,1 53711U 22107M   23318.65138679 -.00000078  00000-0  13176-4 0  9999,2 53711  53.2163  86.9380 0001257  96.2151 263.8984 15.08836538 66753,6917.891,95.438,540.626,538.886,0.0
53711.0,STARLINK-4627,PAYLOAD,2023-11-15 12:18:00,15.08838696,0.0001242,53.2166,83.0728,99.8688,260.2444,7.4408e-05,8.96e-06,0.0,0 STARLINK-4627,1 53711U 22107M   23319.51250780  .00000896  00000-0  74408-4 0  9995,2 53711  53.2166  83.0728 0001242  99.8688 260.2444 15.08838696 66443,6917.884,95.438,540.609,538.89,0.0
53711.0,STARLINK-4627,PAYLOAD,2023-11-15 18:39:32,15.08844744,0.0001262,53.2165,81.8834,98.5211,261.5924,0.00012071,1.634e-05,0.0,0 STARLINK-4627,1 53711U 22107M   23319.77746290  .00001634  00000-0  12071-3 0  9997,2 53711  53.2165  81.8834 0001262  98.5211 261.5924 15.08844744 66927,6917.866,95.437,540.604,538.858,0.0
53711.0,STARLINK-4627,PAYLOAD,2023-11-16 01:01:06,15.08830469,0.0001503,53.2172,80.6934,91.5415,268.5749,8.5252e-05,1.069e-05,0.0,0 STARLINK-4627,1 53711U 22107M   23320.04243434  .00001069  00000-0  85252-4 0  9995,2 53711  53.2172  80.6934 0001503  91.5415 268.5749 15.08830469 66527,6917.91,95.438,540.814,538.735,0.0
53711.0,STARLINK-4627,PAYLOAD,2023-11-16 08:58:02,15.08830245,0.0001528,53.2171,79.2066,93.63,266.4867,7.3183e-05,8.77e-06,0.0,0 STARLINK-4627,1 53711U 22107M   23320.37363678  .00000877  00000-0  73183-4 0  9990,2 53711  53.2171  79.2066 0001528  93.6300 266.4867 15.08830245 67014,6917.91,95.438,540.832,538.718,0.0
53711.0,STARLINK-4627,PAYLOAD,2023-11-17 11:59:35,15.08839831,0.0001575,53.2186,74.1515,87.2848,272.8324,8.1355e-05,1.007e-05,0.0,0 STARLINK-4627,1 53711U 22107M   23321.49971486  .00001007  00000-0  81355-4 0  9992,2 53711  53.2186  74.1515 0001575  87.2848 272.8324 15.08839831 66749,6917.881,95.438,540.835,538.656,0.0
53711.0,STARLINK-4627,PAYLOAD,2023-11-17 16:45:45,15.08805373,0.0001516,53.2177,73.259,116.4027,243.7121,0.00062474,9.659e-05,0.0,0 STARLINK-4627,1 53711U 22107M   23321.69844440  .00009659  00000-0  62474-3 0  9994,2 53711  53.2177  73.2590 0001516 116.4027 243.7121 15.08805373 66770,6917.986,95.44,540.9,538.802,0.0
53711.0,STARLINK-4627,PAYLOAD,2023-11-18 13:25:45,15.08839435,0.0001409,53.2163,69.3939,92.8712,267.2441,0.00017669,2.525e-05,0.0,0 STARLINK-4627,1 53711U 22107M   23322.55955526  .00002525  00000-0  17669-3 0  9999,2 53711  53.2163  69.3939 0001409  92.8712 267.2441 15.08839435 66904,6917.882,95.438,540.722,538.772,0.0
53711.0,STARLINK-4627,PAYLOAD,2023-11-19 13:16:32,15.08845961,0.0001449,53.2168,64.9331,95.7243,264.3914,0.0001011,1.322e-05,0.0,0 STARLINK-4627,1 53711U 22107M   23323.55315079  .00001322  00000-0  10110-3 0  9991,2 53711  53.2168  64.9331 0001449  95.7243 264.3914 15.08845961 67490,6917.862,95.437,540.73,538.725,0.0
53711.0,STARLINK-4627,PAYLOAD,2023-11-20 00:24:14,15.0884336,0.0001383,53.2178,62.8523,94.1584,265.9566,9.1285e-05,1.165e-05,0.0,0 STARLINK-4627,1 53711U 22107M   23324.01683075  .00001165  00000-0  91285-4 0  9995,2 53711  53.2178  62.8523 0001383  94.1584 265.9566 15.08843360 67120,6917.87,95.437,540.692,538.778,0.0
53711.0,STARLINK-4627,PAYLOAD,2023-11-20 13:07:19,15.08846264,0.0001287,53.2188,60.4739,93.4112,266.7028,5.5886e-05,6.02e-06,0.0,0 STARLINK-4627,1 53711U 22107M   23324.54674966  .00000602  00000-0  55886-4 0  9994,2 53711  53.2188  60.4739 0001287  93.4112 266.7028 15.08846264 67641,6917.861,95.437,540.617,538.836,0.0
53711.0,STARLINK-4627,PAYLOAD,2023-11-21 01:50:24,15.08836652,0.0001407,53.2188,58.0951,97.206,262.9092,0.00012731,1.739e-05,0.0,0 STARLINK-4627,1 53711U 22107M   23325.07667163  .00001739  00000-0  12731-3 0  9997,2 53711  53.2188  58.0951 0001407  97.2060 262.9092 15.08836652 67287,6917.891,95.438,540.729,538.782,0.0
53711.0,STARLINK-4627,PAYLOAD,2023-11-21 11:22:43,15.0883635,0.0001381,53.2188,56.3111,97.6289,262.486,0.00014726,2.056e-05,0.0,0 STARLINK-4627,1 53711U 22107M   23325.47411283  .00002056  00000-0  14726-3 0  9990,2 53711  53.2188  56.3111 0001381  97.6289 262.4860 15.08836350 67782,6917.892,95.438,540.712,538.801,0.0
53711.0,STARLINK-4627,PAYLOAD,2023-11-22 11:13:29,15.08850798,0.0001441,53.2198,51.8544,81.4182,278.6973,0.00016289,2.306e-05,0.0,0 STARLINK-4627,1 53711U 22107M   23326.46770303  .00002306  00000-0  16289-3 0  9995,2 53711  53.2198  51.8544 0001441  81.4182 278.6973 15.08850798 67497,6917.847,95.437,540.709,538.716,0.0
53711.0,STARLINK-4627,PAYLOAD,2023-11-23 11:04:17,15.08838332,0.0001912,53.2199,47.396,116.9594,243.1594,2.914e-05,1.76e-06,0.0,0 STARLINK-4627,1 53711U 22107M   23327.46131107  .00000176  00000-0  29140-4 0  9993,2 53711  53.2199  47.3960 0001912 116.9594 243.1594 15.08838332 67647,6917.885,95.438,541.073,538.428,0.0
53711.0,STARLINK-4627,PAYLOAD,2023-11-24 10:55:05,15.08830196,0.0001748,53.2193,42.9289,111.1576,248.9603,-0.00016922,-2.979e-05,0.0,0 STARLINK-4627,1 53711U 22107M   23328.45491992 -.00002979  00000-0 -16922-3 0  9992,2 53711  53.2193  42.9289 0001748 111.1576 248.9603 15.08830196 67790,6917.91,95.438,540.985,538.566,0.0
53711.0,STARLINK-4627,PAYLOAD,2023-11-24 12:30:28,15.08836561,0.0001556,53.219,42.6317,94.3784,265.7386,-8.2114e-05,-1.594e-05,0.0,0 STARLINK-4627,1 53711U 22107M   23328.52116393 -.00001594  00000-0 -82114-4 0  9998,2 53711  53.2190  42.6317 0001556  94.3784 265.7386 15.08836561 68244,6917.891,95.438,540.832,538.679,0.0
53711.0,STARLINK-4627,PAYLOAD,2023-11-25 12:21:14,15.08855951,0.0001456,53.2191,38.1713,87.379,272.7368,0.00031193,4.682e-05,0.0,0 STARLINK-4627,1 53711U 22107M   23329.51474706  .00004682  00000-0  31193-3 0  9992,2 53711  53.2191  38.1713 0001456  87.3790 272.7368 15.08855951 68391,6917.832,95.437,540.704,538.689,0.0
53711.0,STARLINK-4627,PAYLOAD,2023-11-25 23:28:56,15.0884458,0.0001813,53.2192,36.0968,63.2662,296.8516,0.00038011,5.767e-05,0.0,0 STARLINK-4627,1 53711U 22107M   23329.97843165  .00005767  00000-0  38011-3 0  9992,2 53711  53.2192  36.0968 0001813  63.2662 296.8516 15.08844580 68027,6917.866,95.437,540.986,538.477,0.0
53711.0,STARLINK-4627,PAYLOAD,2023-11-26 12:11:59,15.08866725,0.0001325,53.219,33.7081,107.0955,253.0182,0.00031695,4.764e-05,0.0,0 STARLINK-4627,1 53711U 22107M   23330.50833306  .00004764  00000-0  31695-3 0  9996,2 53711  53.2190  33.7081 0001325 107.0955 253.0182 15.08866725 68541,6917.799,95.436,540.58,538.747,0.0
53711.0,STARLINK-4627,PAYLOAD,2023-11-27 04:05:55,15.08799814,0.0001824,53.2187,30.7433,50.7288,309.3866,-0.00074001,-0.00012033,0.0,0 STARLINK-4627,1 53711U 22107M   23331.17078306 -.00012033  00000-0 -74001-3 0  9999,2 53711  53.2187  30.7433 0001824  50.7288 309.3866 15.08799814 68203,6918.003,95.44,541.13,538.606,0.0
53711.0,STARLINK-4627,PAYLOAD,2023-11-27 10:27:30,15.08804449,0.0001945,53.2192,29.5543,63.8931,296.2261,-0.00040286,-6.688e-05,0.0,0 STARLINK-4627,1 53711U 22107M   23331.43576465 -.00006688  00000-0 -40286-3 0  9994,2 53711  53.2192  29.5543 0001945  63.8931 296.2261 15.08804449 68249,6917.989,95.44,541.2,538.509,0.0
53711.0,STARLINK-4627,PAYLOAD,2023-11-28 10:18:10,15.08885797,0.0001779,53.2196,25.0901,93.7825,266.3371,0.00037307,5.662e-05,0.0,0 STARLINK-4627,1 53711U 22107M   23332.42929060  .00005662  00000-0  37307-3 0  9996,2 53711  53.2196  25.0901 0001779  93.7825 266.3371 15.08885797 68392,6917.74,95.435,540.836,538.375,0.0
